{
  "norad_id": 66655,
  "name": "CAS500-3",
  "history": [
    {
      "epoch": "2026-03-28T19:28:46.914240Z",
      "apogee_km": 608.5115025742471,
      "perigee_km": 597.1130086297007,
      "latitude_deg": 1.6446779752875127e-05,
      "longitude_deg": -100.7266169018277,
      "height_km": 601.9899715572293,
      "semi_major_axis_km": 6980.949255601974,
      "eccentricity": 0.0008164,
      "inclination_deg": 97.7414,
      "raan_deg": 17.6956,
      "arg_perigee_deg": 47.5362,
      "mean_anomaly_deg": 312.6544,
      "mean_motion_rev_day": 14.88438998
    }
  ]
}