{"fetched_at":"2026-03-29T16:36:15Z","count":15609,"tles":[{"name":"CAS500-3","line1":"1 66655U 25274F   26087.81165410  .00001721  00000+0  19125-3 0  9998","line2":"2 66655  97.7414  17.6956 0008164  47.5362 312.6544 14.88438998 18198","category":"Other"}]}